GLOBALSTAR M094 [+]     
1 39074U 13005C   23277.74063443 -.00000095  00000+0  46216-4 0  9991
2 39074  51.9945 274.2408 0000464  49.4710 310.6196 12.62268132493919
GLOBALSTAR M096 [+]     
1 39075U 13005D   23277.51616724 -.00000076  00000+0  15224-3 0  9996
2 39075  52.0086 322.9532 0000369  50.2998 309.7901 12.62264504493135
GLOBALSTAR M078 [+]     
1 39076U 13005E   23277.56871543 -.00000103  00000+0  16049-5 0  9993
2 39076  51.9885  48.1416 0000580 202.2373 157.8468 12.62261563491411
GLOBALSTAR M095 [+]     
1 39077U 13005F   23277.67469649 -.00000106  00000+0 -11101-4 0  9993
2 39077  51.9813  45.3271 0000037  78.1078 281.9793 12.62269039491641
GLOBALSTAR M087 [+]     
1 52888U 22064A   23277.58343577 -.00000089  00000+0  74782-4 0  9997
2 52888  51.9777  23.1305 0010074  75.2526 284.9490 13.37553763 63189
